start=new Date('2022-02-11T00:00:00.000Z').valueOf();
sats=[{"RA_OF_ASC_NODE":"250.9667","NORAD_CAT_ID":"47662","PERIOD":"95.592","TLE_LINE1":"1 47662U 21012AU  22041.81150793  .00002233  00000-0  16875-3 0  9994","MEAN_MOTION_DOT":"0.00002233","COUNTRY_CODE":"US","REV_AT_EPOCH":"5601","MEAN_ELEMENT_THEORY":"SGP4","CLASSIFICATION_TYPE":"U","SEMIMAJOR_AXIS":"6925.355","ELEMENT_SET_NO":"999","OBJECT_ID":"2021-012AU","TIME_SYSTEM":"UTC","FILE":"3297147","INCLINATION":"53.0541","EPHEMERIS_TYPE":"0","OBJECT_NAME":"STARLINK-2052","DECAY_DATE":null,"ARG_OF_PERICENTER":"68.1040","GP_ID":"195714377","MEAN_ANOMALY":"292.0129","OBJECT_TYPE":"PAYLOAD","TLE_LINE2":"2 47662  53.0541 250.9667 0001696  68.1040 292.0129 15.06398027 56019","REF_FRAME":"TEME","SITE":"AFETR","EPOCH":"2022-02-10T19:28:34.285152","LAUNCH_DATE":"2021-02-16","BSTAR":"0.00016875000000","APOAPSIS":"548.394","CENTER_NAME":"EARTH","MEAN_MOTION":"15.06398027","MEAN_MOTION_DDOT":"0.0000000000000","RCS_SIZE":"LARGE","PERIAPSIS":"546.045","ECCENTRICITY":"0.00016960"},{"BSTAR":"0.00001823700000","LAUNCH_DATE":"2021-02-16","EPOCH":"2022-02-10T20:16:19.102656","SITE":"AFETR","REF_FRAME":"TEME","TLE_LINE2":"2 47663  53.0568 170.8181 0001487  65.9242 294.1902 15.06396085 57135","OBJECT_TYPE":"PAYLOAD","MEAN_ANOMALY":"294.1902","ECCENTRICITY":"0.00014870","PERIAPSIS":"546.196","RCS_SIZE":"LARGE","MEAN_MOTION_DDOT":"0.0000000000000","MEAN_MOTION":"15.06396085","CENTER_NAME":"EARTH","APOAPSIS":"548.255","REV_AT_EPOCH":"5713","COUNTRY_CODE":"US","TLE_LINE1":"1 47663U 21012AV  22041.84466554 -.00000010  00000-0  18237-4 0  9990","MEAN_MOTION_DOT":"-0.00000010","PERIOD":"95.592","NORAD_CAT_ID":"47663","RA_OF_ASC_NODE":"170.8181","GP_ID":"195715126","ARG_OF_PERICENTER":"65.9242","OBJECT_NAME":"STARLINK-2053","DECAY_DATE":null,"EPHEMERIS_TYPE":"0","INCLINATION":"53.0568","FILE":"3297147","TIME_SYSTEM":"UTC","OBJECT_ID":"2021-012AV","ELEMENT_SET_NO":"999","SEMIMAJOR_AXIS":"6925.361","CLASSIFICATION_TYPE":"U","MEAN_ELEMENT_THEORY":"SGP4"},{"FILE":"3297147","TIME_SYSTEM":"UTC","INCLINATION":"53.0534","SEMIMAJOR_AXIS":"6925.331","ELEMENT_SET_NO":"999","MEAN_ELEMENT_THEORY":"SGP4","CLASSIFICATION_TYPE":"U","OBJECT_ID":"2021-012AW","ARG_OF_PERICENTER":"65.5267","GP_ID":"195713875","EPHEMERIS_TYPE":"0","OBJECT_NAME":"STARLINK-2054","DECAY_DATE":null,"PERIOD":"95.592","NORAD_CAT_ID":"47664","MEAN_MOTION_DOT":"0.00001980","TLE_LINE1":"1 47664U 21012AW  22041.87878343  .00001980  00000-0  15175-3 0  9990","RA_OF_ASC_NODE":"250.6690","COUNTRY_CODE":"US","REV_AT_EPOCH":"5602","CENTER_NAME":"EARTH","MEAN_MOTION":"15.06405678","APOAPSIS":"548.298","ECCENTRICITY":"0.00015910","MEAN_MOTION_DDOT":"0.0000000000000","PERIAPSIS":"546.094","RCS_SIZE":"LARGE","OBJECT_TYPE":"PAYLOAD","MEAN_ANOMALY":"294.5888","REF_FRAME":"TEME","SITE":"AFETR","TLE_LINE2":"2 47664  53.0534 250.6690 0001591  65.5267 294.5888 15.06405678 56023","LAUNCH_DATE":"2021-02-16","BSTAR":"0.00015175000000","EPOCH":"2022-02-10T21:05:26.888352"},{"RA_OF_ASC_NODE":"245.7644","MEAN_MOTION_DOT":"0.00001294","TLE_LINE1":"1 47665U 21012AX  22041.85433713  .00001294  00000-0  10579-3 0  9998","PERIOD":"95.592","NORAD_CAT_ID":"47665","REV_AT_EPOCH":"5608","COUNTRY_CODE":"US","OBJECT_ID":"2021-012AX","SEMIMAJOR_AXIS":"6925.351","ELEMENT_SET_NO":"999","CLASSIFICATION_TYPE":"U","MEAN_ELEMENT_THEORY":"SGP4","INCLINATION":"53.0533","FILE":"3297147","TIME_SYSTEM":"UTC","OBJECT_NAME":"STARLINK-2056","DECAY_DATE":null,"EPHEMERIS_TYPE":"0","GP_ID":"195714125","ARG_OF_PERICENTER":"155.0562","REF_FRAME":"TEME","SITE":"AFETR","TLE_LINE2":"2 47665  53.0533 245.7644 0001751 155.0562 205.0512 15.06399117 56085","OBJECT_TYPE":"PAYLOAD","MEAN_ANOMALY":"205.0512","EPOCH":"2022-02-10T20:30:14.728032","BSTAR":"0.00010579000000","LAUNCH_DATE":"2021-02-16","APOAPSIS":"548.429","MEAN_MOTION":"15.06399117","CENTER_NAME":"EARTH","PERIAPSIS":"546.004","RCS_SIZE":"LARGE","MEAN_MOTION_DDOT":"0.0000000000000","ECCENTRICITY":"0.00017510"},{"ECCENTRICITY":"0.00016650","MEAN_MOTION_DDOT":"0.0000000000000","RCS_SIZE":"MEDIUM","PERIAPSIS":"546.030","CENTER_NAME":"EARTH","MEAN_MOTION":"15.06410017","APOAPSIS":"548.336","LAUNCH_DATE":"2021-02-16","BSTAR":"0.00037572000000","EPOCH":"2022-02-10T19:42:29.539008","MEAN_ANOMALY":"286.6531","OBJECT_TYPE":"PAYLOAD","TLE_LINE2":"2 47666  53.0536 245.9229 0001665  73.4641 286.6531 15.06410017 56084","REF_FRAME":"TEME","SITE":"AFETR","ARG_OF_PERICENTER":"73.4641","GP_ID":"195714877","EPHEMERIS_TYPE":"0","DECAY_DATE":null,"OBJECT_NAME":"STARLINK-2057","TIME_SYSTEM":"UTC","FILE":"3297147","INCLINATION":"53.0536","MEAN_ELEMENT_THEORY":"SGP4","CLASSIFICATION_TYPE":"U","SEMIMAJOR_AXIS":"6925.318","ELEMENT_SET_NO":"999","OBJECT_ID":"2021-012AY","COUNTRY_CODE":"US","REV_AT_EPOCH":"5608","NORAD_CAT_ID":"47666","PERIOD":"95.592","TLE_LINE1":"1 47666U 21012AY  22041.82117522  .00005321  00000-0  37572-3 0  9990","MEAN_MOTION_DOT":"0.00005321","RA_OF_ASC_NODE":"245.9229"},{"COUNTRY_CODE":"US","REV_AT_EPOCH":"5572","PERIOD":"95.591","NORAD_CAT_ID":"47667","TLE_LINE1":"1 47667U 21012AZ  22041.91011311  .00004221  00000-0  30199-3 0  9996","MEAN_MOTION_DOT":"0.00004221","RA_OF_ASC_NODE":"270.5295","ARG_OF_PERICENTER":"60.6209","GP_ID":"195714627","EPHEMERIS_TYPE":"0","DECAY_DATE":null,"OBJECT_NAME":"STARLINK-2058","FILE":"3297147","TIME_SYSTEM":"UTC","INCLINATION":"53.0538","ELEMENT_SET_NO":"999","SEMIMAJOR_AXIS":"6925.300","MEAN_ELEMENT_THEORY":"SGP4","CLASSIFICATION_TYPE":"U","OBJECT_ID":"2021-012AZ","LAUNCH_DATE":"2021-02-16","BSTAR":"0.00030199000000","EPOCH":"2022-02-10T21:50:33.772704","OBJECT_TYPE":"PAYLOAD","MEAN_ANOMALY":"299.4954","SITE":"AFETR","REF_FRAME":"TEME","TLE_LINE2":"2 47667  53.0538 270.5295 0001741  60.6209 299.4954 15.06415944 55722","ECCENTRICITY":"0.00017410","MEAN_MOTION_DDOT":"0.0000000000000","PERIAPSIS":"545.959","RCS_SIZE":"LARGE","CENTER_NAME":"EARTH","MEAN_MOTION":"15.06415944","APOAPSIS":"548.370"},{"REF_FRAME":"TEME","SITE":"AFETR","TLE_LINE2":"2 47668  53.0526 250.6327 0001723  59.5315 300.5844 15.06408662 56025","OBJECT_TYPE":"PAYLOAD","MEAN_ANOMALY":"300.5844","EPOCH":"2022-02-10T21:16:04.524672","BSTAR":"0.00026970000000","LAUNCH_DATE":"2021-02-16","APOAPSIS":"548.380","MEAN_MOTION":"15.06408662","CENTER_NAME":"EARTH","RCS_SIZE":"LARGE","PERIAPSIS":"545.994","MEAN_MOTION_DDOT":"0.0000000000000","ECCENTRICITY":"0.00017230","RA_OF_ASC_NODE":"250.6327","MEAN_MOTION_DOT":"0.00003739","TLE_LINE1":"1 47668U 21012BA  22041.88616348  .00003739  00000-0  26970-3 0  9999","PERIOD":"95.592","NORAD_CAT_ID":"47668","REV_AT_EPOCH":"5602","COUNTRY_CODE":"US","OBJECT_ID":"2021-012BA","ELEMENT_SET_NO":"999","SEMIMAJOR_AXIS":"6925.322","CLASSIFICATION_TYPE":"U","MEAN_ELEMENT_THEORY":"SGP4","INCLINATION":"53.0526","FILE":"3297147","TIME_SYSTEM":"UTC","OBJECT_NAME":"STARLINK-2059","DECAY_DATE":null,"EPHEMERIS_TYPE":"0","GP_ID":"195713376","ARG_OF_PERICENTER":"59.5315"},{"MEAN_ELEMENT_THEORY":"SGP4","CLASSIFICATION_TYPE":"U","ELEMENT_SET_NO":"999","SEMIMAJOR_AXIS":"6925.393","OBJECT_ID":"2021-012BB","TIME_SYSTEM":"UTC","FILE":"3296917","INCLINATION":"53.0529","EPHEMERIS_TYPE":"0","DECAY_DATE":null,"OBJECT_NAME":"STARLINK-2060","ARG_OF_PERICENTER":"61.4355","GP_ID":"195688051","RA_OF_ASC_NODE":"175.4907","NORAD_CAT_ID":"47669","PERIOD":"95.593","TLE_LINE1":"1 47669U 21012BB  22041.91667824  .00009920  00000-0  68421-3 0  9994","MEAN_MOTION_DOT":"0.00009920","COUNTRY_CODE":"US","REV_AT_EPOCH":"5655","APOAPSIS":"548.165","CENTER_NAME":"EARTH","MEAN_MOTION":"15.06385394","MEAN_MOTION_DDOT":"0.0000000000000","PERIAPSIS":"546.352","RCS_SIZE":"LARGE","ECCENTRICITY":"0.00013090","MEAN_ANOMALY":"101.9907","OBJECT_TYPE":"PAYLOAD","TLE_LINE2":"2 47669  53.0529 175.4907 0001309  61.4355 101.9907 15.06385394 56550","SITE":"AFETR","REF_FRAME":"TEME","EPOCH":"2022-02-10T22:00:00.999936","LAUNCH_DATE":"2021-02-16","BSTAR":"0.00068421000000"},{"MEAN_ANOMALY":"344.2022","OBJECT_TYPE":"PAYLOAD","TLE_LINE2":"2 47670  53.0534 250.8495 0001536  15.9015 344.2022 15.06421240 56008","REF_FRAME":"TEME","SITE":"AFETR","EPOCH":"2022-02-10T20:01:45.132096","LAUNCH_DATE":"2021-02-16","BSTAR":"0.00044762000000","APOAPSIS":"548.212","CENTER_NAME":"EARTH","MEAN_MOTION":"15.06421240","MEAN_MOTION_DDOT":"0.0000000000000","PERIAPSIS":"546.085","RCS_SIZE":"LARGE","ECCENTRICITY":"0.00015360","RA_OF_ASC_NODE":"250.8495","NORAD_CAT_ID":"47670","PERIOD":"95.591","MEAN_MOTION_DOT":"0.00006396","TLE_LINE1":"1 47670U 21012BC  22041.83455014  .00006396  00000-0  44762-3 0  9999","COUNTRY_CODE":"US","REV_AT_EPOCH":"5600","MEAN_ELEMENT_THEORY":"SGP4","CLASSIFICATION_TYPE":"U","SEMIMAJOR_AXIS":"6925.283","ELEMENT_SET_NO":"999","OBJECT_ID":"2021-012BC","TIME_SYSTEM":"UTC","FILE":"3297147","INCLINATION":"53.0534","EPHEMERIS_TYPE":"0","DECAY_DATE":null,"OBJECT_NAME":"STARLINK-2062","ARG_OF_PERICENTER":"15.9015","GP_ID":"195714378"},{"OBJECT_TYPE":"PAYLOAD","MEAN_ANOMALY":"285.7379","SITE":"AFETR","REF_FRAME":"TEME","TLE_LINE2":"2 47671  53.0524 250.6545 0001543  74.3780 285.7379 15.06394464 56021","EPOCH":"2022-02-10T21:10:45.396768","LAUNCH_DATE":"2021-02-16","BSTAR":"0.00002974600000","APOAPSIS":"548.299","CENTER_NAME":"EARTH","MEAN_MOTION":"15.06394464","MEAN_MOTION_DDOT":"0.0000000000000","RCS_SIZE":"LARGE","PERIAPSIS":"546.162","ECCENTRICITY":"0.00015430","RA_OF_ASC_NODE":"250.6545","PERIOD":"95.592","NORAD_CAT_ID":"47671","MEAN_MOTION_DOT":"0.00000162","TLE_LINE1":"1 47671U 21012BD  22041.88246987  .00000162  00000-0  29746-4 0  9993","COUNTRY_CODE":"US","REV_AT_EPOCH":"5602","ELEMENT_SET_NO":"999","SEMIMAJOR_AXIS":"6925.366","MEAN_ELEMENT_THEORY":"SGP4","CLASSIFICATION_TYPE":"U","OBJECT_ID":"2021-012BD","FILE":"3297147","TIME_SYSTEM":"UTC","INCLINATION":"53.0524","EPHEMERIS_TYPE":"0","DECAY_DATE":null,"OBJECT_NAME":"STARLINK-2064","ARG_OF_PERICENTER":"74.3780","GP_ID":"195715127"}];
